| satellites | [{"alt": 0, "country": "EU", "id": "31797", "inclination": 0, "line1": "1 31797U 07030A   26198.90259723  .00003877  00000+0  61616-4 0  9998", "line2": "2 31797  98.1059 307.2541 0005146 211.2385 148.8561 15.54087221 61703", "name": "SAR-LUPE 2", "type": "sar", "velocity": 0}, {"alt": 0, "country": "US", "id": "39088", "inclination": 0, "line1": "1 39088U 13009C   26198.90607836  .00000040  00000+0  28749-4 0  9993", "line2": "2 39088  98.4277  17.6347 0011746 152.1852 207.9964 14.35248045700985", "name": "SAPPHIRE", "type": "military", "velocity": 0}, {"alt": 0, "country": "US", "id": "65565", "inclination": 0, "line1": "1 65565U 25203A   26198.89344013  .00000046  00000+0  30629-4 0  9990", "line2": "2 65565  81.3048 342.3386 0007119 111.4028 248.7889 13.83888138 42943", "name": "PRAETORIAN SDA_602", "type": "military", "velocity": 0}, {"alt": 0, "country": "US", "id": "65566", "inclination": 0, "line1": "1 65566U 25203B   26198.92158082  .00000128  00000+0  10422-3 0  9993", "line2": "2 65566  81.3055 342.2326 0010812 109.5356 250.6969 13.83963312 42951", "name": "PRAETORIAN SDA_603", "type": "military", "velocity": 0}, {"alt": 0, "country": "US", "id": "65567", "inclination": 0, "line1": "1 65567U 25203C   26198.88859969  .00000045  00000+0  30092-4 0  9995", "line2": "2 65567  81.3069 342.7246 0006623 115.1402 245.0442 13.83050296 42922", "name": "PRAETORIAN SDA_604", "type": "military", "velocity": 0}, {"alt": 0, "country": "US", "id": "65568", "inclination": 0, "line1": "1 65568U 25203D   26198.92033201  .00000057  00000+0  41472-4 0  9991", "line2": "2 65568  81.3034 342.3343 0009369 106.7348 253.4837 13.83200365 42941", "name": "PRAETORIAN SDA_605", "type": "military", "velocity": 0}, {"alt": 0, "country": "US", "id": "65569", "inclination": 0, "line1": "1 65569U 25203E   26198.90550603  .00000028  00000+0  14466-4 0  9991", "line2": "2 65569  81.3071 342.5872 0007222 109.8655 250.3280 13.83200159 42931", "name": "PRAETORIAN SDA_606", "type": "military", "velocity": 0}, {"alt": 0, "country": "US", "id": "65570", "inclination": 0, "line1": "1 65570U 25203F   26198.89477146  .00000074  00000+0  56241-4 0  9999", "line2": "2 65570  81.3054 342.2144 0010010 108.0552 252.1696 13.83758805 42958", "name": "PRAETORIAN SDA_607", "type": "military", "velocity": 0}, {"alt": 0, "country": "US", "id": "65571", "inclination": 0, "line1": "1 65571U 25203G   26198.87717682  .00000045  00000+0  29901-4 0  9991", "line2": "2 65571  81.3023 342.3930 0007122 114.0572 246.1330 13.83819636 42934", "name": "PRAETORIAN SDA_608", "type": "military", "velocity": 0}, {"alt": 0, "country": "US", "id": "65572", "inclination": 0, "line1": "1 65572U 25203H   26198.87339576  .00000211  00000+0  17888-3 0  9999", "line2": "2 65572  81.3064 342.3738 0008009 109.0554 251.1471 13.84212033 42947", "name": "PRAETORIAN SDA_609", "type": "military", "velocity": 0}, {"alt": 0, "country": "US", "id": "65573", "inclination": 0, "line1": "1 65573U 25203J   26198.85963847  .00000071  00000+0  53674-4 0  9990", "line2": "2 65573  81.3025 342.3737 0007856 113.4281 246.7702 13.83528508 42931", "name": "PRAETORIAN SDA_610", "type": "military", "velocity": 0}, {"alt": 0, "country": "US", "id": "65574", "inclination": 0, "line1": "1 65574U 25203K   26198.86896775  .00000330  00000+0  28972-3 0  9997", "line2": "2 65574  81.3033 342.5486 0006730 117.6760 242.5079 13.83311495 42927", "name": "PRAETORIAN SDA_611", "type": "military", "velocity": 0}, {"alt": 0, "country": "US", "id": "65575", "inclination": 0, "line1": "1 65575U 25203L   26198.89253564  .00000111  00000+0  87169-4 0  9995", "line2": "2 65575  81.3045 342.0378 0010415 108.5037 251.7253 13.85041317 42962", "name": "PRAETORIAN SDA_612", "type": "military", "velocity": 0}, {"alt": 0, "country": "US", "id": "65576", "inclination": 0, "line1": "1 65576U 25203M   26198.88776750  .00000046  00000+0  31077-4 0  9996", "line2": "2 65576  81.3016 342.5520 0006812 108.8395 251.3500 13.82767894 42920", "name": "PRAETORIAN SDA_613", "type": "military", "velocity": 0}, {"alt": 0, "country": "US", "id": "65577", "inclination": 0, "line1": "1 65577U 25203N   26198.88751345  .00000039  00000+0  24242-4 0  9998", "line2": "2 65577  81.3031 342.1278 0008254 106.9728 253.2334 13.84778763 42964", "name": "PRAETORIAN SDA_614", "type": "military", "velocity": 0}, {"alt": 0, "country": "US", "id": "65578", "inclination": 0, "line1": "1 65578U 25203P   26198.87195278  .00000190  00000+0  15884-3 0  9994", "line2": "2 65578  81.3040 342.1247 0010197 107.5638 252.6633 13.84438551 42959", "name": "PRAETORIAN SDA_615", "type": "military", "velocity": 0}, {"alt": 0, "country": "US", "id": "65579", "inclination": 0, "line1": "1 65579U 25203Q   26198.86909493  .00000161  00000+0  13549-3 0  9990", "line2": "2 65579  81.3078 342.7143 0006599 115.9076 244.2761 13.83270506 42921", "name": "PRAETORIAN SDA_616", "type": "military", "velocity": 0}, {"alt": 0, "country": "US", "id": "65580", "inclination": 0, "line1": "1 65580U 25203R   26198.89331704  .00000047  00000+0  32255-4 0  9998", "line2": "2 65580  81.3054 342.5201 0008509 107.2152 252.9936 13.83152367 42937", "name": "PRAETORIAN SDA_617", "type": "military", "velocity": 0}, {"alt": 0, "country": "US", "id": "65581", "inclination": 0, "line1": "1 65581U 25203S   26198.91199243  .00000109  00000+0  86517-4 0  9991", "line2": "2 65581  81.3037 342.0213 0010909 110.1692 250.0639 13.84225911 42965", "name": "PRAETORIAN SDA_618", "type": "military", "velocity": 0}, {"alt": 0, "country": "US", "id": "65582", "inclination": 0, "line1": "1 65582U 25203T   26198.88792115  .00000131  00000+0  10778-3 0  9995", "line2": "2 65582  81.3064 342.3740 0009316 107.8251 252.3923 13.83806125 43578", "name": "PRAETORIAN SDA_619", "type": "military", "velocity": 0}, {"alt": 0, "country": "US", "id": "65583", "inclination": 0, "line1": "1 65583U 25203U   26198.92418386  .00000081  00000+0  63435-4 0  9999", "line2": "2 65583  81.3048 342.3753 0008655 105.3578 254.8535 13.83207747 42946", "name": "PRAETORIAN SDA_620", "type": "military", "velocity": 0}, {"alt": 0, "country": "US", "id": "65584", "inclination": 0, "line1": "1 65584U 25203V   26198.88976225  .00000045  00000+0  29750-4 0  9998", "line2": "2 65584  81.3037 342.3042 0008519 102.5111 257.6999 13.83804021 42940", "name": "PRAETORIAN SDA_621", "type": "military", "velocity": 0}, {"alt": 0, "country": "US", "id": "65585", "inclination": 0, "line1": "1 65585U 25203W   26198.87444836  .00000282  00000+0  24693-3 0  9999", "line2": "2 65585  81.3063 342.6494 0006654 118.4692 241.7135 13.83170958 42921", "name": "PRAETORIAN SDA_601", "type": "military", "velocity": 0}, {"alt": 0, "country": "EU", "id": "31598", "inclination": 0, "line1": "1 31598U 07023A   26198.94547520  .00001588  00000+0  14243-3 0  9998", "line2": "2 31598  97.8849  31.0617 0001644 100.9973 259.1434 14.97228097 34391", "name": "COSMO-SKYMED 1", "type": "sar", "velocity": 0}, {"alt": 0, "country": "EU", "id": "31698", "inclination": 0, "line1": "1 31698U 07026A   26188.47915537  .00000240  00000+0  14624-4 0  9994", "line2": "2 31698  97.4461 195.8972 0001878  86.9540 273.1909 15.19153986 56300", "name": "TERRASAR-X", "type": "sar", "velocity": 0}, {"alt": 0, "country": "US", "id": "32060", "inclination": 0, "line1": "1 32060U 07041A   26198.94608212  .00003083  00000+0  12803-3 0  9991", "line2": "2 32060  97.3907 318.2593 0001788 193.9547 166.1642 15.24576267 47564", "name": "WORLDVIEW-1 (WV-1)", "type": "optical", "velocity": 0}, {"alt": 0, "country": "CN", "id": "32289", "inclination": 0, "line1": "1 32289U 07055A   26199.00149861  .00000271  00000+0  33149-4 0  9990", "line2": "2 32289  97.8140 228.5748 0001478  77.8929 282.2455 14.90885954 10465", "name": "YAOGAN-3", "type": "sar", "velocity": 0}, {"alt": 0, "country": "EU", "id": "32376", "inclination": 0, "line1": "1 32376U 07059A   26198.94585380  .00000149  00000+0  25277-4 0  9990", "line2": "2 32376  97.8896  22.0990 0001456  93.8789 266.2591 14.82151728  6569", "name": "COSMO-SKYMED 2", "type": "sar", "velocity": 0}, {"alt": 0, "country": "IN", "id": "32783", "inclination": 0, "line1": "1 32783U 08021A   26198.95919043  .00000380  00000+0  57750-4 0  9998", "line2": "2 32783  97.7611 246.6151 0012232  18.8150 341.3512 14.79278274983352", "name": "CARTOSAT-2A", "type": "optical", "velocity": 0}, {"alt": 0, "country": "EU", "id": "33412", "inclination": 0, "line1": "1 33412U 08054A   26198.95120198  .00002705  00000+0  18396-3 0  9994", "line2": "2 33412  97.8244  58.0301 0015960 157.3808 202.8126 15.07128915961577", "name": "COSMO-SKYMED 3", "type": "sar", "velocity": 0}, {"alt": 0, "country": "CN", "id": "33446", "inclination": 0, "line1": "1 33446U 08061A   26198.79463138  .00000437  00000+0  60013-4 0  9999", "line2": "2 33446  97.9303 132.0803 0013611 336.8738  23.1861 14.83253803950204", "name": "YAOGAN-4", "type": "sar", "velocity": 0}, {"alt": 0, "country": "US", "id": "35946", "inclination": 0, "line1": "1 35946U 09055A   26198.99033282  .00000046  00000+0  29745-4 0  9998", "line2": "2 35946  98.4755 272.0206 0005414 123.0912 237.0795 14.37907397880074", "name": "WORLDVIEW-2 (WV-2)", "type": "optical", "velocity": 0}, {"alt": 0, "country": "CN", "id": "36110", "inclination": 0, "line1": "1 36110U 09069A   26198.95941166  .00000187  00000+0  33093-4 0  9999", "line2": "2 36110  98.0029  84.6308 0023354 302.0402  57.8540 14.78036859894177", "name": "YAOGAN-7", "type": "sar", "velocity": 0}, {"alt": 0, "country": "IN", "id": "36795", "inclination": 0, "line1": "1 36795U 10035A   26198.92692253  .00000251  00000+0  41333-4 0  9998", "line2": "2 36795  97.9933 249.2770 0012751  91.9234 268.3437 14.78652754864399", "name": "CARTOSAT-2B", "type": "optical", "velocity": 0}, {"alt": 0, "country": "CN", "id": "36834", "inclination": 0, "line1": "1 36834U 10038A   26198.99500257  .00000280  00000+0  38774-4 0  9991", "line2": "2 36834  97.8965 222.1539 0001626  81.9193 304.4551 14.85432779861782", "name": "YAOGAN-10", "type": "sar", "velocity": 0}, {"alt": 0, "country": "EU", "id": "37216", "inclination": 0, "line1": "1 37216U 10060A   26198.95851947  .00000406  00000+0  57551-4 0  9996", "line2": "2 37216  97.8891  22.1129 0001540  84.6189 275.5200 14.82151545849127", "name": "COSMO-SKYMED 4", "type": "sar", "velocity": 0}, {"alt": 0, "country": "TR", "id": "37791", "inclination": 0, "line1": "1 37791U 11044D   26198.92361245  .00000374  00000+0  73231-4 0  9998", "line2": "2 37791  98.0584 289.8518 0021936  94.5086  16.8394 14.68194669797690", "name": "RASAT", "type": "military", "velocity": 0}, {"alt": 0, "country": "EU", "id": "38012", "inclination": 0, "line1": "1 38012U 11076F   26199.00882150 -.00000024  00000+0  45944-5 0  9997", "line2": "2 38012  98.1968 273.6958 0001659  77.9400  47.8640 14.58547057776482", "name": "PLEIADES 1A", "type": "optical", "velocity": 0}, {"alt": 0, "country": "CN", "id": "38038", "inclination": 0, "line1": "1 38038U 11079A   26198.97682932  .00000031  00000+0  24477-4 0  9993", "line2": "2 38038  98.4057 265.6401 0005780 205.3347 278.9020 14.38236430763632", "name": "ZIYUAN 1-02C (ZY 1-02C)", "type": "optical", "velocity": 0}, {"alt": 0, "country": "EU", "id": "39019", "inclination": 0, "line1": "1 39019U 12068A   26198.95026329  .00000006  00000+0  11150-4 0  9998", "line2": "2 39019  98.1939 273.5763 0001526  78.1041 282.0329 14.58534645725332", "name": "PLEIADES 1B", "type": "optical", "velocity": 0}, {"alt": 0, "country": "TR", "id": "39030", "inclination": 0, "line1": "1 39030U 12073A   26198.93541102  .00000514  00000+0  82301-4 0  9996", "line2": "2 39030  97.6805  34.8240 0000997  98.7739 261.3584 14.75571035729040", "name": "GOKTURK 2", "type": "military", "velocity": 0}, {"alt": 0, "country": "CN", "id": "39150", "inclination": 0, "line1": "1 39150U 13018A   26198.96511319  .00000324  00000+0  53638-4 0  9999", "line2": "2 39150  97.9083 270.4053 0017293 162.3799 197.8015 14.76520264712789", "name": "GAOFEN-1", "type": "optical", "velocity": 0}, {"alt": 0, "country": "US", "id": "39418", "inclination": 0, "line1": "1 39418U 13066C   26198.81101244  .00001429  00000+0  83912-4 0  9990", "line2": "2 39418  97.3800 247.2323 0020703 203.9624 156.0646 15.13122952693114", "name": "SKYSAT-A", "type": "optical", "velocity": 0}, {"alt": 0, "country": "EU", "id": "39634", "inclination": 0, "line1": "1 39634U 14016A   26198.60748559  .00000020  00000+0  14006-4 0  9993", "line2": "2 39634  98.1738 205.6947 0001510  77.7211 282.4158 14.59175806654458", "name": "SENTINEL-1A", "type": "military", "velocity": 0}, {"alt": 0, "country": "US", "id": "40072", "inclination": 0, "line1": "1 40072U 14037D   26198.85478173  .00000585  00000+0  70239-4 0  9999", "line2": "2 40072  98.3855 159.5727 0005780 164.7180 195.4211 14.88095356650526", "name": "SKYSAT-B", "type": "optical", "velocity": 0}, {"alt": 0, "country": "US", "id": "40115", "inclination": 0, "line1": "1 40115U 14048A   26198.95967559  .00000336  00000+0  45561-4 0  9995", "line2": "2 40115  97.8555 273.3664 0001509 151.6753 208.4544 14.85066533646471", "name": "WORLDVIEW-3 (WV-3)", "type": "optical", "velocity": 0}, {"alt": 0, "country": "CN", "id": "40118", "inclination": 0, "line1": "1 40118U 14049A   26198.98687162 -.00000201  00000+0 -19024-4 0  9999", "line2": "2 40118  98.0093 263.1623 0008413 126.9472 233.2512 14.80927354643795", "name": "GAOFEN-2", "type": "optical", "velocity": 0}, {"alt": 0, "country": "CN", "id": "40143", "inclination": 0, "line1": "1 40143U 14053A   26198.96997080  .00003323  00000+0  12879-3 0  9999", "line2": "2 40143  97.1455 237.8895 0007426 358.0020   2.1189 15.26780855659653", "name": "YAOGAN-21", "type": "sar", "velocity": 0}, {"alt": 0, "country": "CN", "id": "40275", "inclination": 0, "line1": "1 40275U 14063A   26198.91030631 -.00000024  00000+0  61536-4 0  9992", "line2": "2 40275 100.7765 350.6989 0006897 119.4588 240.7213 13.15531635563851", "name": "YAOGAN-22", "type": "sar", "velocity": 0}, {"alt": 0, "country": "CN", "id": "40310", "inclination": 0, "line1": "1 40310U 14072A   26198.92435487 -.00000140  00000+0 -12609-4 0  9998", "line2": "2 40310  98.1532 336.5245 0014804 160.9978 199.1787 14.76118810628255", "name": "YAOGAN-24", "type": "sar", "velocity": 0}, {"alt": 0, "country": "CN", "id": "40362", "inclination": 0, "line1": "1 40362U 14088A   26198.96852563  .00007630  00000+0  14512-3 0  9997", "line2": "2 40362  97.0654 198.4830 0001420 320.8154  39.2995 15.48510916642460", "name": "YAOGAN-26", "type": "sar", "velocity": 0}, {"alt": 0, "country": "KR", "id": "40536", "inclination": 0, "line1": "1 40536U 15014A   26198.94165705  .00020181  00000+0  27636-3 0  9990", "line2": "2 40536  97.6898 192.5900 0055935  65.9835 294.7259 15.55539887626598", "name": "KOMPSAT-3A", "type": "optical", "velocity": 0}, {"alt": 0, "country": "EU", "id": "40697", "inclination": 0, "line1": "1 40697U 15028A   26198.91400405 -.00000152  00000+0 -41527-4 0  9993", "line2": "2 40697  98.5677 273.3278 0001303  94.5393 265.5939 14.30814033578121", "name": "SENTINEL-2A", "type": "military", "velocity": 0}, {"alt": 0, "country": "CN", "id": "40701", "inclination": 0, "line1": "1 40701U 15030A   26198.95150209  .00013656  00000+0  27171-3 0  9999", "line2": "2 40701  97.6890  34.1920 0009919  86.7469 273.4914 15.47012998616201", "name": "GAOFEN-8", "type": "optical", "velocity": 0}, {"alt": 0, "country": "CN", "id": "40878", "inclination": 0, "line1": "1 40878U 15040A   26198.96901809 -.00000592  00000+0 -14479-2 0  9999", "line2": "2 40878 100.1171 184.0186 0008616 139.1810 220.9951 13.16070012521717", "name": "YAOGAN-27", "type": "sar", "velocity": 0}, {"alt": 0, "country": "CN", "id": "40894", "inclination": 0, "line1": "1 40894U 15047A   26198.96673696  .00000441  00000+0  60225-4 0  9997", "line2": "2 40894  97.6263 233.2615 0028262  41.7620 318.5745 14.82938036584758", "name": "GAOFEN-9 01", "type": "optical", "velocity": 0}, {"alt": 0, "country": "CN", "id": "41026", "inclination": 0, "line1": "1 41026U 15064A   26198.97855906  .00003709  00000+0  13916-3 0  9995", "line2": "2 41026  97.3116 336.6268 0012026  84.4939 275.7672 15.27780735595385", "name": "YAOGAN-28", "type": "sar", "velocity": 0}, {"alt": 0, "country": "CN", "id": "41038", "inclination": 0, "line1": "1 41038U 15069A   26198.94300491 -.00000406  00000+0 -43220-4 0  9999", "line2": "2 41038  98.0014 227.6227 0000519   5.7587 354.3632 14.83105933575184", "name": "YAOGAN-29", "type": "sar", "velocity": 0}, {"alt": 0, "country": "CN", "id": "41194", "inclination": 0, "line1": "1 41194U 15083A   26198.93040744 -.00000344  00000+0  00000+0 0  9993", "line2": "2 41194   0.4350  83.7658 0004255 125.4429 167.1757  1.00271336 38832", "name": "GAOFEN-4", "type": "optical", "velocity": 0}, {"alt": 0, "country": "EU", "id": "41335", "inclination": 0, "line1": "1 41335U 16011A   26198.93343549  .00000040  00000+0  34744-4 0  9990", "line2": "2 41335  98.6235 265.8732 0001334  89.4056 270.7277 14.26740239542446", "name": "SENTINEL-3A", "type": "military", "velocity": 0}, {"alt": 0, "country": "CN", "id": "41556", "inclination": 0, "line1": "1 41556U 16033A   26198.97192558  .00002712  00000+0  12348-3 0  9998", "line2": "2 41556  97.3824 274.1546 0014376 175.2628 184.8747 15.21450066562661", "name": "ZIYUAN 3-02 (ZY 3-02)", "type": "optical", "velocity": 0}, {"alt": 0, "country": "IN", "id": "41599", "inclination": 0, "line1": "1 41599U 16040A   26198.95088375  .00000998  00000+0  50521-4 0  9992", "line2": "2 41599  97.4465 258.5025 0009352  36.7134 323.4739 15.19274240558380", "name": "CARTOSAT-2C", "type": "optical", "velocity": 0}, {"alt": 0, "country": "US", "id": "41601", "inclination": 0, "line1": "1 41601U 16040C   26198.04294710  .00005058  00000+0  14290-3 0  9992", "line2": "2 41601  96.9547 228.1510 0000261 236.3178 123.8043 15.36766876562450", "name": "SKYSAT-C1", "type": "optical", "velocity": 0}, {"alt": 0, "country": "CN", "id": "41727", "inclination": 0, "line1": "1 41727U 16049A   26198.95715829 -.00000183  00000+0 -42388-4 0  9995", "line2": "2 41727  98.4013 206.2792 0001750  82.6083 277.5305 14.42218397523084", "name": "GAOFEN-3", "type": "optical", "velocity": 0}, {"alt": 0, "country": "US", "id": "41771", "inclination": 0, "line1": "1 41771U 16058B   26198.04736832  .00009969  00000+0  18273-3 0  9995", "line2": "2 41771  96.9161 218.5856 0003478 114.9854 245.1760 15.49475207550091", "name": "SKYSAT-C4", "type": "optical", "velocity": 0}, {"alt": 0, "country": "US", "id": "41772", "inclination": 0, "line1": "1 41772U 16058C   26198.10333753  .00003812  00000+0  11912-3 0  9992", "line2": "2 41772  97.0451 237.4000 0002753 155.5860 204.5514 15.33734076548335", "name": "SKYSAT-C5", "type": "optical", "velocity": 0}, {"alt": 0, "country": "US", "id": "41773", "inclination": 0, "line1": "1 41773U 16058D   26198.29708365  .00006528  00000+0  15146-3 0  9998", "line2": "2 41773  97.0158 219.2705 0001114 343.1238  16.9973 15.42708898549691", "name": "SKYSAT-C2", "type": "optical", "velocity": 0}, {"alt": 0, "country": "US", "id": "41774", "inclination": 0, "line1": "1 41774U 16058E   26198.03754474  .00014444  00000+0  22667-3 0  9995", "line2": "2 41774  96.8991 227.7582 0002623 130.7873 229.3610 15.53761650550745", "name": "SKYSAT-C3", "type": "optical", "velocity": 0}, {"alt": 0, "country": "TR", "id": "41875", "inclination": 0, "line1": "1 41875U 16073A   26198.89050519  .00000375  00000+0  82637-4 0  9999", "line2": "2 41875  98.1210  93.0786 0001431  81.4747 278.6617 14.62794967513316", "name": "GOKTURK 1A", "type": "military", "velocity": 0}, {"alt": 0, "country": "IN", "id": "41948", "inclination": 0, "line1": "1 41948U 17008A   26198.98261478  .00001372  00000+0  68209-4 0  9994", "line2": "2 41948  97.4084 257.7104 0006215 131.1831 228.9941 15.19293702522258", "name": "CARTOSAT-2D", "type": "optical", "velocity": 0}, {"alt": 0, "country": "EU", "id": "42063", "inclination": 0, "line1": "1 42063U 17013A   26198.97674340 -.00000029  00000+0  54347-5 0  9992", "line2": "2 42063  98.5684 273.3151 0001218  92.0641 268.0681 14.30815236489042", "name": "SENTINEL-2B", "type": "military", "velocity": 0}, {"alt": 0, "country": "IN", "id": "42767", "inclination": 0, "line1": "1 42767U 17036C   26198.93457159  .00001267  00000+0  63311-4 0  9995", "line2": "2 42767  97.4255 258.2272 0003555 177.3894 182.7360 15.19264525502818", "name": "CARTOSAT-2E", "type": "optical", "velocity": 0}, {"alt": 0, "country": "EU", "id": "42969", "inclination": 0, "line1": "1 42969U 17064A   26198.86323805  .00000009  00000+0  25401-4 0  9993", "line2": "2 42969  98.7929 140.7776 0001161  94.1328 265.9981 14.19523493453917", "name": "SENTINEL-5P", "type": "military", "velocity": 0}, {"alt": 0, "country": "US", "id": "42987", "inclination": 0, "line1": "1 42987U 17068A   26198.93692861  .00017166  00000+0  21849-3 0  9999", "line2": "2 42987  97.4388 349.1483 0001289 155.4215 204.7103 15.59422768488035", "name": "SKYSAT-C11", "type": "optical", "velocity": 0}, {"alt": 0, "country": "US", "id": "42988", "inclination": 0, "line1": "1 42988U 17068B   26198.93301374  .00005959  00000+0  17711-3 0  9996", "line2": "2 42988  97.4547 336.0968 0001524 111.3925 248.7481 15.35149496487075", "name": "SKYSAT-C10", "type": "optical", "velocity": 0}, {"alt": 0, "country": "US", "id": "42989", "inclination": 0, "line1": "1 42989U 17068C   26198.93471131  .00007151  00000+0  16826-3 0  9998", "line2": "2 42989  97.4467 337.3319 0008411  35.9309 324.2502 15.42254918487494", "name": "SKYSAT-C9", "type": "optical", "velocity": 0}, {"alt": 0, "country": "US", "id": "42990", "inclination": 0, "line1": "1 42990U 17068D   26198.92216577  .00005875  00000+0  16192-3 0  9997", "line2": "2 42990  97.4564 336.0041 0001239 103.5918 256.5464 15.37523384487035", "name": "SKYSAT-C8", "type": "optical", "velocity": 0}, {"alt": 0, "country": "US", "id": "42991", "inclination": 0, "line1": "1 42991U 17068E   26198.91673559  .00005655  00000+0  15614-3 0  9998", "line2": "2 42991  97.4575 336.9903 0005505  11.9593 348.1781 15.37473008487098", "name": "SKYSAT-C7", "type": "optical", "velocity": 0}, {"alt": 0, "country": "US", "id": "42992", "inclination": 0, "line1": "1 42992U 17068F   26198.86718076  .00005065  00000+0  15546-3 0  9996", "line2": "2 42992  97.4612 336.7817 0005052  82.8828 277.2989 15.34196805487027", "name": "SKYSAT-C6", "type": "optical", "velocity": 0}, {"alt": 0, "country": "IN", "id": "43111", "inclination": 0, "line1": "1 43111U 18004A   26198.96725336  .00002239  00000+0  10970-3 0  9995", "line2": "2 43111  97.4768 258.2984 0002431 127.8594 232.2861 15.19185208472004", "name": "CARTOSAT-2F", "type": "optical", "velocity": 0}, {"alt": 0, "country": "CN", "id": "43259", "inclination": 0, "line1": "1 43259U 18031A   26198.93091402  .00000157  00000+0  30021-4 0  9992", "line2": "2 43259  98.0511 261.3694 0001472 269.4236  90.6805 14.76472850447238", "name": "GAOFEN-1 02", "type": "optical", "velocity": 0}, {"alt": 0, "country": "CN", "id": "43260", "inclination": 0, "line1": "1 43260U 18031B   26198.97679873  .00000321  00000+0  53560-4 0  9998", "line2": "2 43260  98.0502 261.2701 0002191   7.5378 352.5865 14.76464634447232", "name": "GAOFEN-1 03", "type": "optical", "velocity": 0}, {"alt": 0, "country": "CN", "id": "43262", "inclination": 0, "line1": "1 43262U 18031D   26198.95250649  .00000778  00000+0  11920-3 0  9993", "line2": "2 43262  98.0511 261.4407 0001066  50.7509 309.3795 14.76441243447227", "name": "GAOFEN-1 04", "type": "optical", "velocity": 0}, {"alt": 0, "country": "EU", "id": "43437", "inclination": 0, "line1": "1 43437U 18039A   26198.83645340  .00000049  00000+0  38405-4 0  9997", "line2": "2 43437  98.6235 265.9266 0001210 119.6038 240.5263 14.26736832428495", "name": "SENTINEL-3B", "type": "military", "velocity": 0}, {"alt": 0, "country": "CN", "id": "43461", "inclination": 0, "line1": "1 43461U 18043A   26198.88881622  .00000134  00000+0  37553-4 0  9997", "line2": "2 43461  98.4592 171.1238 0001941  26.2193 333.9104 14.60624351436174", "name": "GAOFEN-5 01", "type": "optical", "velocity": 0}, {"alt": 0, "country": "CN", "id": "43484", "inclination": 0, "line1": "1 43484U 18048A   26198.97519973 -.00000031  00000+0  31496-5 0  9992", "line2": "2 43484  98.0954 261.6835 0012102  73.6160 286.6379 14.76384403437937", "name": "GAOFEN-6", "type": "optical", "velocity": 0}, {"alt": 0, "country": "CN", "id": "43585", "inclination": 0, "line1": "1 43585U 18063A   26198.98324813  .00007436  00000+0  10789-3 0  9994", "line2": "2 43585  97.1267 265.7906 0003481 186.8794 173.2414 15.56117064445138", "name": "GAOFEN-11 01", "type": "optical", "velocity": 0}, {"alt": 0, "country": "CN", "id": "44622", "inclination": 0, "line1": "1 44622U 19066A   26198.98755815  .00000546  00000+0  73785-4 0  9992", "line2": "2 44622  98.0510 152.7935 0006723  45.4133 314.7628 14.83060499366946", "name": "GAOFEN-10R", "type": "optical", "velocity": 0}, {"alt": 0, "country": "IN", "id": "44804", "inclination": 0, "line1": "1 44804U 19081A   26198.98148147  .00001603  00000+0  79309-4 0  9998", "line2": "2 44804  97.4285 260.3498 0012770  50.0922 310.1433 15.19193625368143", "name": "CARTOSAT-3", "type": "optical", "velocity": 0}, {"alt": 0, "country": "CN", "id": "44819", "inclination": 0, "line1": "1 44819U 19082A   26198.96713862  .00000156  00000+0  26994-4 0  9999", "line2": "2 44819  97.8111 204.5355 0000829  59.1638 300.9656 14.80480785358640", "name": "GAOFEN-12 01", "type": "optical", "velocity": 0}, {"alt": 0, "country": "EU", "id": "46984", "inclination": 0, "line1": "1 46984U 20086A   26198.92547703 -.00000047  00000+0  62706-4 0  9996", "line2": "2 46984  66.0412  71.2096 0007775 269.6881  90.3243 12.80930208264267", "name": "SENTINEL-6A", "type": "military", "velocity": 0}, {"alt": 0, "country": "CN", "id": "48079", "inclination": 0, "line1": "1 48079U 21026A   26198.98151354  .00000141  00000+0  25465-4 0  9992", "line2": "2 48079  97.9936 197.0385 0005975 124.9013 235.2761 14.80317170286310", "name": "GAOFEN-12 02", "type": "optical", "velocity": 0}, {"alt": 0, "country": "EU", "id": "48268", "inclination": 0, "line1": "1 48268U 21034A   26198.98042196  .00000825  00000+0  11146-3 0  9993", "line2": "2 48268  97.8940 273.3041 0001405  95.5246 264.6127 14.81672522282219", "name": "PLEIADES NEO 3", "type": "optical", "velocity": 0}, {"alt": 0, "country": "EU", "id": "49070", "inclination": 0, "line1": "1 49070U 21073E   26198.94664495 -.00000038  00000+0  18390-5 0  9993", "line2": "2 49070  97.8939 273.2667 0001318  95.0856 265.0507 14.81673015265921", "name": "PLEIADES NEO 4", "type": "optical", "velocity": 0}, {"alt": 0, "country": "CN", "id": "52912", "inclination": 0, "line1": "1 52912U 22069A   26198.94907485  .00000222  00000+0  35980-4 0  9994", "line2": "2 52912  97.8236  86.0387 0002397  69.0416 291.1052 14.80077890219168", "name": "GAOFEN-12 03", "type": "optical", "velocity": 0}, {"alt": 0, "country": "CN", "id": "57654", "inclination": 0, "line1": "1 57654U 23123A   26198.96932918  .00000454  00000+0  67188-4 0  9997", "line2": "2 57654  97.9099 116.5264 0003372  44.6368 315.5115 14.79778145157189", "name": "GAOFEN-12 04", "type": "optical", "velocity": 0}, {"alt": 0, "country": "EU", "id": "60989", "inclination": 0, "line1": "1 60989U 24157A   26198.80193258  .00000044  00000+0  33447-4 0  9995", "line2": "2 60989  98.5683 273.1491 0001011 105.0170 255.1125 14.30816119 97367", "name": "SENTINEL-2C", "type": "military", "velocity": 0}, {"alt": 0, "country": "EU", "id": "66514", "inclination": 0, "line1": "1 66514U 25264A   26198.92582496 -.00000045  00000+0  69349-4 0  9996", "line2": "2 66514  66.0411  71.3350 0007834 268.5138  91.4980 12.80930218 31106", "name": "SENTINEL-6B", "type": "military", "velocity": 0}] |
